{"type": "FeatureCollection", "features": [ {"type": "Feature", "properties": {"norad_id": 66617, "name": "STARLINK-35940", "group": "last-30-days", "lat": 2.1431188454839956, "lon": 21.38246198916861, "alt_km": 376.29322720003165, "timestamp": "2025-12-09T11:33:53.576282+00:00", "meta": {"OBJECT_NAME": "STARLINK-35940", "OBJECT_ID": "2025-271A", "EPOCH": "2025-12-09T04:00:01.998720", "MEAN_MOTION": 15.65541905, "ECCENTRICITY": 0.0001154, "INCLINATION": 53.1586, "RA_OF_ASC_NODE": 204.5332, "ARG_OF_PERICENTER": 96.1426, "MEAN_ANOMALY": 104.5052, "EPHEMERIS_TYPE": 0, "CLASSIFICATION_TYPE": "U", "NORAD_CAT_ID": 66617, "ELEMENT_SET_NO": 999, "REV_AT_EPOCH": 366, "BSTAR": -0.022453, "MEAN_MOTION_DOT": -0.02017864, "MEAN_MOTION_DDOT": 0}, "tle": {"line1": "1 66617U 25271A   25343.16668980 -.02017864  00000+0 -22453-1 0  9990", "line2": "2 66617  53.1586 204.5332 0001154  96.1426 104.5052 15.65541905  3667"}}, "geometry": {"type": "Point", "coordinates": [21.38246198916861, 2.1431188454839956]}}, {"type": "Feature", "properties": {"norad_id": 66618, "name": "STARLINK-35970", "group": "last-30-days", "lat": -38.19426353248279, "lon": 59.02593396844919, "alt_km": 380.47882956964713, "timestamp": "2025-12-09T11:33:53.576294+00:00", "meta": {"OBJECT_NAME": "STARLINK-35970", "OBJECT_ID": "2025-271B", "EPOCH": "2025-12-09T04:00:01.998720", "MEAN_MOTION": 15.65537108, "ECCENTRICITY": 0.0001001, "INCLINATION": 53.1589, "RA_OF_ASC_NODE": 204.4204, "ARG_OF_PERICENTER": 110.4295, "MEAN_ANOMALY": 143.5445, "EPHEMERIS_TYPE": 0, "CLASSIFICATION_TYPE": "U", "NORAD_CAT_ID": 66618, "ELEMENT_SET_NO": 999, "REV_AT_EPOCH": 366, "BSTAR": -0.022391, "MEAN_MOTION_DOT": -0.02012553, "MEAN_MOTION_DDOT": 0}, "tle": {"line1": "1 66618U 25271B   25343.16668980 -.02012553  00000+0 -22391-1 0  9992", "line2": "2 66618  53.1589 204.4204 0001001 110.4295 143.5445 15.65537108  3662"}}, "geometry": {"type": "Point", "coordinates": [59.02593396844919, -38.19426353248279]}}, {"type": "Feature", "properties": {"norad_id": 66619, "name": "STARLINK-35951", "group": "last-30-days", "lat": -3.989641818192484, "lon": 25.97086712179053, "alt_km": 377.11006727567656, "timestamp": "2025-12-09T11:33:53.576306+00:00", "meta": {"OBJECT_NAME": "STARLINK-35951", "OBJECT_ID": "2025-271C", "EPOCH": "2025-12-09T04:00:01.998720", "MEAN_MOTION": 15.65536745, "ECCENTRICITY": 0.0001138, "INCLINATION": 53.1587, "RA_OF_ASC_NODE": 204.5163, "ARG_OF_PERICENTER": 103.4744, "MEAN_ANOMALY": 104.8433, "EPHEMERIS_TYPE": 0, "CLASSIFICATION_TYPE": "U", "NORAD_CAT_ID": 66619, "ELEMENT_SET_NO": 999, "REV_AT_EPOCH": 366, "BSTAR": -0.022375, "MEAN_MOTION_DOT": -0.02011382, "MEAN_MOTION_DDOT": 0}, "tle": {"line1": "1 66619U 25271C   25343.16668980 -.02011382  00000+0 -22375-1 0  9994", "line2": "2 66619  53.1587 204.5163 0001138 103.4744 104.8433 15.65536745  3661"}}, "geometry": {"type": "Point", "coordinates": [25.97086712179053, -3.989641818192484]}}, {"type": "Feature", "properties": {"norad_id": 66620, "name": "STARLINK-35936", "group": "last-30-days", "lat": 0.6120372859497404, "lon": 22.527381139008188, "alt_km": 376.501760849168, "timestamp": "2025-12-09T11:33:53.576317+00:00", "meta": {"OBJECT_NAME": "STARLINK-35936", "OBJECT_ID": "2025-271D", "EPOCH": "2025-12-09T04:00:01.998720", "MEAN_MOTION": 15.6553011, "ECCENTRICITY": 0.0001087, "INCLINATION": 53.1589, "RA_OF_ASC_NODE": 204.5292, "ARG_OF_PERICENTER": 98.7325, "MEAN_ANOMALY": 103.836, "EPHEMERIS_TYPE": 0, "CLASSIFICATION_TYPE": "U", "NORAD_CAT_ID": 66620, "ELEMENT_SET_NO": 999, "REV_AT_EPOCH": 366, "BSTAR": -0.022262, "MEAN_MOTION_DOT": -0.02001934, "MEAN_MOTION_DDOT": 0}, "tle": {"line1": "1 66620U 25271D   25343.16668980 -.02001934  00000+0 -22262-1 0  9993", "line2": "2 66620  53.1589 204.5292 0001087  98.7325 103.8360 15.65530110  3660"}}, "geometry": {"type": "Point", "coordinates": [22.527381139008188, 0.6120372859497404]}}, {"type": "Feature", "properties": {"norad_id": 66621, "name": "STARLINK-35847", "group": "last-30-days", "lat": -40.424142222224155, "lon": 62.56039768611219, "alt_km": 380.64912751083284, "timestamp": "2025-12-09T11:33:53.576346+00:00", "meta": {"OBJECT_NAME": "STARLINK-35847", "OBJECT_ID": "2025-271E", "EPOCH": "2025-12-09T04:00:01.998720", "MEAN_MOTION": 15.65536569, "ECCENTRICITY": 9.35e-05, "INCLINATION": 53.1587, "RA_OF_ASC_NODE": 204.4126, "ARG_OF_PERICENTER": 96.9586, "MEAN_ANOMALY": 160.5551, "EPHEMERIS_TYPE": 0, "CLASSIFICATION_TYPE": "U", "NORAD_CAT_ID": 66621, "ELEMENT_SET_NO": 999, "REV_AT_EPOCH": 366, "BSTAR": -0.022381, "MEAN_MOTION_DOT": -0.02011639, "MEAN_MOTION_DDOT": 0}, "tle": {"line1": "1 66621U 25271E   25343.16668980 -.02011639  00000+0 -22381-1 0  9999", "line2": "2 66621  53.1587 204.4126 0000935  96.9586 160.5551 15.65536569  3660"}}, "geometry": {"type": "Point", "coordinates": [62.56039768611219, -40.424142222224155]}}, {"type": "Feature", "properties": {"norad_id": 66622, "name": "STARLINK-35950", "group": "last-30-days", "lat": -5.51808908618428, "lon": 27.123722757045815, "alt_km": 377.3185538844791, "timestamp": "2025-12-09T11:33:53.576364+00:00", "meta": {"OBJECT_NAME": "STARLINK-35950", "OBJECT_ID": "2025-271F", "EPOCH": "2025-12-09T04:00:01.998720", "MEAN_MOTION": 15.65531707, "ECCENTRICITY": 0.0001067, "INCLINATION": 53.1586, "RA_OF_ASC_NODE": 204.5129, "ARG_OF_PERICENTER": 104.3058, "MEAN_ANOMALY": 105.9295, "EPHEMERIS_TYPE": 0, "CLASSIFICATION_TYPE": "U", "NORAD_CAT_ID": 66622, "ELEMENT_SET_NO": 999, "REV_AT_EPOCH": 366, "BSTAR": -0.022292, "MEAN_MOTION_DOT": -0.02004349, "MEAN_MOTION_DDOT": 0}, "tle": {"line1": "1 66622U 25271F   25343.16668980 -.02004349  00000+0 -22292-1 0  9991", "line2": "2 66622  53.1586 204.5129 0001067 104.3058 105.9295 15.65531707  3666"}}, "geometry": {"type": "Point", "coordinates": [27.123722757045815, -5.51808908618428]}}, {"type": "Feature", "properties": {"norad_id": 66623, "name": "STARLINK-35920", "group": "last-30-days", "lat": -8.57386787573422, "lon": 29.4522315930467, "alt_km": 377.77780719952625, "timestamp": "2025-12-09T11:33:53.576375+00:00", "meta": {"OBJECT_NAME": "STARLINK-35920", "OBJECT_ID": "2025-271G", "EPOCH": "2025-12-09T04:00:01.998720", "MEAN_MOTION": 15.6553593, "ECCENTRICITY": 0.0001076, "INCLINATION": 53.1587, "RA_OF_ASC_NODE": 204.5045, "ARG_OF_PERICENTER": 99.3136, "MEAN_ANOMALY": 114.7562, "EPHEMERIS_TYPE": 0, "CLASSIFICATION_TYPE": "U", "NORAD_CAT_ID": 66623, "ELEMENT_SET_NO": 999, "REV_AT_EPOCH": 366, "BSTAR": -0.02237, "MEAN_MOTION_DOT": -0.02010838, "MEAN_MOTION_DDOT": 0}, "tle": {"line1": "1 66623U 25271G   25343.16668980 -.02010838  00000+0 -22370-1 0  9999", "line2": "2 66623  53.1587 204.5045 0001076  99.3136 114.7562 15.65535930  3662"}}, "geometry": {"type": "Point", "coordinates": [29.4522315930467, -8.57386787573422]}}, {"type": "Feature", "properties": {"norad_id": 66624, "name": "STARLINK-35927", "group": "last-30-days", "lat": -7.047847682303457, "lon": 28.284440147304508, "alt_km": 377.61534257427047, "timestamp": "2025-12-09T11:33:53.576385+00:00", "meta": {"OBJECT_NAME": "STARLINK-35927", "OBJECT_ID": "2025-271H", "EPOCH": "2025-12-09T04:00:01.998720", "MEAN_MOTION": 15.65533232, "ECCENTRICITY": 9.88e-05, "INCLINATION": 53.1587, "RA_OF_ASC_NODE": 204.5087, "ARG_OF_PERICENTER": 90.0857, "MEAN_ANOMALY": 122.0689, "EPHEMERIS_TYPE": 0, "CLASSIFICATION_TYPE": "U", "NORAD_CAT_ID": 66624, "ELEMENT_SET_NO": 999, "REV_AT_EPOCH": 366, "BSTAR": -0.022333, "MEAN_MOTION_DOT": -0.02007691, "MEAN_MOTION_DDOT": 0}, "tle": {"line1": "1 66624U 25271H   25343.16668980 -.02007691  00000+0 -22333-1 0  9992", "line2": "2 66624  53.1587 204.5087 0000988  90.0857 122.0689 15.65533232  3663"}}, "geometry": {"type": "Point", "coordinates": [28.284440147304508, -7.047847682303457]}}, {"type": "Feature", "properties": {"norad_id": 66625, "name": "STARLINK-35929", "group": "last-30-days", "lat": -10.095854556262152, "lon": 30.628973747863835, "alt_km": 377.7012695462936, "timestamp": "2025-12-09T11:33:53.576395+00:00", "meta": {"OBJECT_NAME": "STARLINK-35929", "OBJECT_ID": "2025-271J", "EPOCH": "2025-12-09T04:00:01.998720", "MEAN_MOTION": 15.65496493, "ECCENTRICITY": 0.0001256, "INCLINATION": 53.1586, "RA_OF_ASC_NODE": 204.5001, "ARG_OF_PERICENTER": 121.81, "MEAN_ANOMALY": 94.2008, "EPHEMERIS_TYPE": 0, "CLASSIFICATION_TYPE": "U", "NORAD_CAT_ID": 66625, "ELEMENT_SET_NO": 999, "REV_AT_EPOCH": 366, "BSTAR": -0.021852, "MEAN_MOTION_DOT": -0.01967261, "MEAN_MOTION_DDOT": 0}, "tle": {"line1": "1 66625U 25271J   25343.16668980 -.01967261  00000+0 -21852-1 0  9995", "line2": "2 66625  53.1586 204.5001 0001256 121.8100  94.2008 15.65496493  3664"}}, "geometry": {"type": "Point", "coordinates": [30.628973747863835, -10.095854556262152]}}, {"type": "Feature", "properties": {"norad_id": 66626, "name": "STARLINK-35902", "group": "last-30-days", "lat": -11.61342055126491, "lon": 31.817035070367037, "alt_km": 378.0964298357594, "timestamp": "2025-12-09T11:33:53.576407+00:00", "meta": {"OBJECT_NAME": "STARLINK-35902", "OBJECT_ID": "2025-271K", "EPOCH": "2025-12-09T04:00:01.998720", "MEAN_MOTION": 15.65541306, "ECCENTRICITY": 0.0001015, "INCLINATION": 53.1587, "RA_OF_ASC_NODE": 204.4961, "ARG_OF_PERICENTER": 106.4869, "MEAN_ANOMALY": 111.4169, "EPHEMERIS_TYPE": 0, "CLASSIFICATION_TYPE": "U", "NORAD_CAT_ID": 66626, "ELEMENT_SET_NO": 999, "REV_AT_EPOCH": 366, "BSTAR": -0.022502, "MEAN_MOTION_DOT": -0.02021595, "MEAN_MOTION_DDOT": 0}, "tle": {"line1": "1 66626U 25271K   25343.16668980 -.02021595  00000+0 -22502-1 0  9991", "line2": "2 66626  53.1587 204.4961 0001015 106.4869 111.4169 15.65541306  3668"}}, "geometry": {"type": "Point", "coordinates": [31.817035070367037, -11.61342055126491]}}]}